stk.v.4.3 

BEGIN Ephemeris 
 
NumberOfEphemerisPoints		146 
ScenarioEpoch	    3 Sep 2020 20:14: 7.606158257 
InterpolationMethod		Lagrange 
InterpolationOrder		5 
CentralBody				Earth 
CoordinateSystem			TEME 
CoordinateSystemEpoch	  3 Sep 2020 20:14: 7.606158257 
DistanceUnit			Kilometers 
 
EphemerisTimePosVel 
 
       0.00000000   -6062.45709080    3585.08114722       0.04374485 -0.111420418 -0.479683825  7.475286877
 END Ephemeris 
